[{"OBJECT_NAME":"STARLINK-35692","OBJECT_ID":"2025-263AE","EPOCH":"2026-03-09T03:27:29.670624","MEAN_MOTION":15.27618533,"ECCENTRICITY":9.372e-5,"INCLINATION":43,"RA_OF_ASC_NODE":353.9242,"ARG_OF_PERICENTER":256.6074,"MEAN_ANOMALY":103.4673,"EPHEMERIS_TYPE":0,"CLASSIFICATION_TYPE":"U","NORAD_CAT_ID":66513,"ELEMENT_SET_NO":999,"REV_AT_EPOCH":1881,"BSTAR":0.0010285494,"MEAN_MOTION_DOT":0.00028183,"MEAN_MOTION_DDOT":0},{"OBJECT_NAME":"TRANSPORTER-1 OBJECT Z","OBJECT_ID":"2021-006Z","EPOCH":"2026-03-09T22:55:57.522432","MEAN_MOTION":15.30965056,"ECCENTRICITY":0.00100878,"INCLINATION":97.2377,"RA_OF_ASC_NODE":113.4736,"ARG_OF_PERICENTER":179.6869,"MEAN_ANOMALY":180.438,"EPHEMERIS_TYPE":0,"CLASSIFICATION_TYPE":"U","NORAD_CAT_ID":47436,"ELEMENT_SET_NO":999,"REV_AT_EPOCH":28420,"BSTAR":0.00024088983,"MEAN_MOTION_DOT":7.143e-5,"MEAN_MOTION_DDOT":0}]
